GSAT0101 (PRN E11)      
1 37846U 11060A   22226.32371603 -.00000092  00000+0  00000+0 0  9995
2 37846  57.0185  19.7646 0002803  65.8981 294.1285  1.70474947 67208
GSAT0102 (PRN E12)      
1 37847U 11060B   22225.65518872 -.00000090  00000+0  00000+0 0  9990
2 37847  57.0188  19.7824 0001734  16.0333 340.4355  1.70475293 67197
GSAT0103 (PRN E19)      
1 38857U 12055A   22226.94973454 -.00000013  00000+0  00000+0 0  9996
2 38857  55.1524 140.0911 0003408 269.7786  90.2074  1.70473715 61241
GSAT0104 (PRN E20)      
1 38858U 12055B   22226.91975623 -.00000013  00000+0  00000+0 0  9994
2 38858  55.1525 140.0936 0001027 268.3083  91.7049  1.70473989 61218
GSAT0201 (PRN E18)      
1 40128U 14050A   22225.88230244 -.00000105  00000+0  00000+0 0  9994
2 40128  50.2447 329.9953 1623799 126.1438 250.0071  1.85518926 52288
GSAT0202 (PRN E14)      
1 40129U 14050B   22225.60410652 -.00000103  00000+0  00000+0 0  9996
2 40129  50.2690 329.0686 1620938 126.9441 249.0358  1.85519505 54447
GSAT0203 (PRN E26)      
1 40544U 15017A   22225.51745415 -.00000090  00000+0  00000+0 0  9994
2 40544  56.8123  19.8118 0002168 208.3205 151.6658  1.70475991 45272
GSAT0204 (PRN E22)      
1 40545U 15017B   22225.18370651 -.00000089  00000+0  00000+0 0  9992
2 40545  56.8187  19.8336 0002648 187.8294 172.1651  1.70475469  8312
GSAT0205 (PRN E24)      
1 40889U 15045A   22224.36438135  .00000033  00000+0  00000+0 0  9993
2 40889  55.5883 260.4185 0003539 348.3801  11.6900  1.70473499 43062
GSAT0206 (PRN E30)      
1 40890U 15045B   22226.34488774  .00000020  00000+0  00000+0 0  9995
2 40890  55.5860 260.3596 0002512 316.4089  43.6352  1.70473539 43126
GSAT0209 (PRN E09)      
1 41174U 15079A   22226.51906121 -.00000013  00000+0  00000+0 0  9991
2 41174  55.1690 139.8071 0003951 318.6349  41.3591  1.70473965 41444
GSAT0208 (PRN E08)      
1 41175U 15079B   22226.15194819 -.00000013  00000+0  00000+0 0  9995
2 41175  55.1671 139.8157 0003217 319.8498  40.1484  1.70473905 41275
GSAT0211 (PRN E02)      
1 41549U 16030A   22226.27115043  .00000020  00000+0  00000+0 0  9990
2 41549  55.7346 260.3007 0005298 296.6002  63.4100  1.70474937 38739
GSAT0210 (PRN E01)      
1 41550U 16030B   22225.97717352  .00000022  00000+0  00000+0 0  9991
2 41550  55.7321 260.3103 0004434 272.6249  87.3908  1.70475145 38743
GSAT0207 (PRN E07)      
1 41859U 16069A   22226.22594475 -.00000013  00000+0  00000+0 0  9994
2 41859  54.8295 139.9821 0003958 303.2493  56.7344  1.70472562 35487
GSAT0212 (PRN E03)      
1 41860U 16069B   22226.07936113 -.00000013  00000+0  00000+0 0  9998
2 41860  54.8268 139.9836 0002686 340.7511  19.2596  1.70472577 35736
GSAT0213 (PRN E04)      
1 41861U 16069C   22227.03129957 -.00000014  00000+0  00000+0 0  9997
2 41861  54.8294 139.9625 0003527 278.8182  81.1674  1.70472752 35743
GSAT0214 (PRN E05)      
1 41862U 16069D   22226.00523506 -.00000013  00000+0  00000+0 0  9991
2 41862  54.8273 139.9855 0002687 285.2070  74.7838  1.70472661 35727
GSAT0215 (PRN E21)      
1 43055U 17079A   22226.49546795  .00000020  00000+0  00000+0 0  9994
2 43055  55.7077 260.1260 0003969 266.6859  93.3314  1.70474315 29079
GSAT0216 (PRN E25)      
1 43056U 17079B   22225.02791759  .00000028  00000+0  00000+0 0  9993
2 43056  55.7087 260.1665 0005575 271.6068  88.4025  1.70474413 29065
GSAT0217 (PRN E27)      
1 43057U 17079C   22222.90185719  .00000046  00000+0  00000+0 0  9991
2 43057  55.7075 260.2247 0004985 281.2156  78.8145  1.70474380 29013
GSAT0218 (PRN E31)      
1 43058U 17079D   22226.05477961  .00000021  00000+0  00000+0 0  9998
2 43058  55.7064 260.1351 0006157 269.5125  90.4826  1.70474344 29099
GSAT0221 (PRN E15)      
1 43564U 18060A   22226.54008792 -.00000092  00000+0  00000+0 0  9996
2 43564  57.1959  19.6145 0001766 250.0238 109.9542  1.70475898 25260
GSAT0222 (PRN E33)      
1 43565U 18060B   22227.34654385 -.00000092  00000+0  00000+0 0  9991
2 43565  57.1984  19.5931 0001145 267.1814  92.8029  1.70475917 25319
GSAT0219 (PRN E36)      
1 43566U 18060C   22224.04758852 -.00000085  00000+0  00000+0 0  9992
2 43566  57.1975  19.6842 0000751 263.4627  96.5297  1.70475822 25239
GSAT0220 (PRN E13)      
1 43567U 18060D   22225.44090929 -.00000089  00000+0  00000+0 0  9996
2 43567  57.1961  19.6462 0001122 244.7399 115.2463  1.70475529 25243
GSAT0223                
1 49809U 21116A   22226.47850171 -.00000092  00000+0  00000+0 0  9998
2 49809  57.1903  19.5164 0003170 152.5321 214.2841  1.70475863  4279
GSAT0224                
1 49810U 21116B   22224.81886773 -.00000088  00000+0  00000+0 0  9998
2 49810  57.1917  19.5593 0003022 140.3189  40.4216  1.70475696  4263
